STARLINK-37361          
1 69134U 26110L   26166.91668981  .00098493  00000+0  30182-2 0  9990
2 69134  97.2841   3.3532 0001943  91.9532 309.3752 15.33395643  5453
STARLINK-37372          
1 69135U 26110M   26166.91668981 -.02318137  00000+0 -59741-1 0  9996
2 69135  97.2840   3.3441 0001750 108.9493 253.6515 15.42597069  5457
STARLINK-37531          
1 69136U 26110N   26166.91668981  .00104265  00000+0  31942-2 0  9992
2 69136  97.2844   3.3661 0001721  97.5833 333.7956 15.33378788  5459
STARLINK-37662          
1 69137U 26110P   26166.91668981 -.02256600  00000+0 -57346-1 0  9993
2 69137  97.2839   3.3429 0001423  83.0837 282.7952 15.42923176  5455
STARLINK-37658          
1 69138U 26110Q   26166.81599859  .00043632  00000+0  79906-3 0  9993
2 69138  97.2819   3.1636 0000446  10.4382 349.6878 15.49204421  5390
STARLINK-37659          
1 69139U 26110R   26166.82371319  .00041335  00000+0  75666-3 0  9991
2 69139  97.2839   3.1549 0001008  72.3186 287.8175 15.49228440  5390
STARLINK-37653          
1 69140U 26110S   26166.82615907  .00044053  00000+0  80670-3 0  9998
2 69140  97.2839   3.1511 0000828  40.9786 319.1527 15.49204452  5394
STARLINK-37654          
1 69141U 26110T   26166.52422448  .00038342  00000+0  70164-3 0  9993
2 69141  97.2827   2.9503 0001818  88.7991 271.3469 15.49252690  5355
STARLINK-37655          
1 69142U 26110U   26166.91668981 -.02308048  00000+0 -67658-1 0  9990
2 69142  97.2843   3.3808 0001310 106.5968 356.7557 15.38711092  5458
STARLINK-37636          
1 69143U 26110V   26166.91668981  .00104999  00000+0  32181-2 0  9990
2 69143  97.2844   3.4106 0002021  82.5010  93.8132 15.33361860  5450
STARLINK-37638          
1 69144U 26110W   26166.91668981  .00096544  00000+0  29598-2 0  9995
2 69144  97.2844   3.4171 0001355  85.1911 106.1680 15.33390550  5455
STARLINK-37657          
1 69145U 26110X   26166.52443814  .00047748  00000+0  87371-3 0  9995
2 69145  97.2826   2.9495 0001306  20.9374 339.1931 15.49207823  5358
STARLINK-37639          
1 69146U 26110Y   26166.91668981  .00095307  00000+0  29227-2 0  9992
2 69146  97.2844   3.4291 0001616  87.5765 133.7985 15.33387491  5503
STARLINK-37661          
1 69147U 26110Z   26166.80425655  .00020550  00000+0  37819-3 0  9995
2 69147  97.2835   3.1817 0002164  88.5167 271.6332 15.49212694  5395
STARLINK-37395          
1 69148U 26111A   26166.91668981 -.00984862  00000+0 -11502-1 0  9996
2 69148  53.1597 158.3288 0000860  87.7274 334.9250 15.63639445  5348
STARLINK-37346          
1 69149U 26111B   26166.91668981  .00067283  00000+0  12089-2 0  9996
2 69149  53.1596 158.8917 0001461  86.8080  58.1792 15.49273287  5343
STARLINK-37332          
1 69150U 26111C   26166.91668981  .00075071  00000+0  13468-2 0  9994
2 69150  53.1592 159.2168 0001135  90.2647 253.9183 15.49269452  5348
STARLINK-37297          
1 69151U 26111D   26166.91668981 -.02370360  00000+0 -31007-1 0  9996
2 69151  53.1601 158.2696 0001511  84.2630   7.2771 15.61465844  5348
STARLINK-37317          
1 69152U 26111E   26166.91668981 -.02473152  00000+0 -26975-1 0  9998
2 69152  53.1595 158.1338 0001351  89.7013  68.2067 15.66176367  5349
STARLINK-37374          
1 69153U 26111F   26166.91668981  .00072265  00000+0  12971-2 0  9997
2 69153  53.1590 159.3935 0000908 108.8868 147.6938 15.49270868  5340
STARLINK-37235          
1 69154U 26111G   26166.69860725  .00027321  00000+0  49719-3 0  9997
2 69154  53.1593 160.6803 0001099  85.6138 274.4997 15.49330776  4008
STARLINK-37329          
1 69155U 26111H   26166.91668981 -.02525671  00000+0 -27817-1 0  9991
2 69155  53.1596 158.1379 0001338  87.6618  68.2103 15.66015841  5341
STARLINK-37345          
1 69156U 26111J   26166.91668981 -.02564480  00000+0 -26421-1 0  9993
2 69156  53.1593 158.0909 0001337  99.7980  79.2797 15.67701196  5349
STARLINK-37353          
1 69157U 26111K   26166.91668981 -.02543009  00000+0 -25876-1 0  9991
2 69157  53.1596 158.0846 0001324  99.7821  82.3660 15.67971205  5347
STARLINK-37363          
1 69158U 26111L   26166.91668981 -.02523063  00000+0 -25907-1 0  9995
2 69158  53.1596 158.0874 0001245 103.3448  77.1544 15.67723564  5344
STARLINK-37343          
1 69159U 26111M   26166.91668981  .00073139  00000+0  13125-2 0  9996
2 69159  53.1589 159.3942 0000896 105.7605 150.0501 15.49271964  5345
STARLINK-37328          
1 69160U 26111N   26166.88169000 -.01019289  00000+0 -95114-2 0  9999
2 69160  53.1599 158.2257 0000992 342.2988  17.7995 15.69244200  4052
STARLINK-37311          
1 69161U 26111P   26166.91668981 -.02502840  00000+0 -21994-1 0  9991
2 69161  53.1591 158.1585 0001287  97.0413  48.8102 15.71405642  5344
STARLINK-36286          
1 69162U 26111Q   26166.90833061 -.00461269  00000+0 -60461-2 0  9994
2 69162  53.1600 158.4028 0000259 281.6298  78.4687 15.59475571  4059
STARLINK-37196          
1 69163U 26111R   26165.56034997  .00136844  00000+0  77789-3 0  9995
2 69163  53.1566 164.9214 0001435  48.8780 311.2365 15.78098124  3849
