OBJECT_NAME,OBJECT_ID,EPOCH,MEAN_MOTION,ECCENTRICITY,INCLINATION,RA_OF_ASC_NODE,ARG_OF_PERICENTER,MEAN_ANOMALY,EPHEMERIS_TYPE,CLASSIFICATION_TYPE,NORAD_CAT_ID,ELEMENT_SET_NO,REV_AT_EPOCH,BSTAR,MEAN_MOTION_DOT,MEAN_MOTION_DDOT
STARLINK-37361,2026-110L,2026-06-15T22:00:01.999584,15.33395643,.00019438,97.2841,3.3532,91.9532,309.3752,0,U,69134,999,545,.30182425E-2,.98493E-3,0
STARLINK-37372,2026-110M,2026-06-15T22:00:01.999584,15.42597069,.00017505,97.2840,3.3441,108.9493,253.6515,0,U,69135,999,545,-.59740866E-1,-.2318137E-1,0
STARLINK-37531,2026-110N,2026-06-15T22:00:01.999584,15.33378788,.00017216,97.2844,3.3661,97.5833,333.7956,0,U,69136,999,545,.31942298E-2,.104265E-2,0
STARLINK-37662,2026-110P,2026-06-15T22:00:01.999584,15.42923176,.00014236,97.2839,3.3429,83.0837,282.7952,0,U,69137,999,545,-.57345912E-1,-.22566E-1,0
STARLINK-37658,2026-110Q,2026-06-15T19:35:02.278176,15.49204421,.00004462,97.2819,3.1636,10.4382,349.6878,0,U,69138,999,539,.79905579E-3,.43632E-3,0
STARLINK-37659,2026-110R,2026-06-15T19:46:08.819616,15.49228440,.00010086,97.2839,3.1549,72.3186,287.8175,0,U,69139,999,539,.75666374E-3,.41335E-3,0
STARLINK-37653,2026-110S,2026-06-15T19:49:40.143648,15.49204452,.00008289,97.2839,3.1511,40.9786,319.1527,0,U,69140,999,539,.80669856E-3,.44053E-3,0
STARLINK-37654,2026-110T,2026-06-15T12:34:52.995072,15.49252690,.00018186,97.2827,2.9503,88.7991,271.3469,0,U,69141,999,535,.70164466E-3,.38342E-3,0
STARLINK-37655,2026-110U,2026-06-15T22:00:01.999584,15.38711092,.00013107,97.2843,3.3808,106.5968,356.7557,0,U,69142,999,545,-.67658122E-1,-.2308048E-1,0
STARLINK-37636,2026-110V,2026-06-15T22:00:01.999584,15.33361860,.00020211,97.2844,3.4106,82.5010,93.8132,0,U,69143,999,545,.32180697E-2,.104999E-2,0
STARLINK-37638,2026-110W,2026-06-15T22:00:01.999584,15.33390550,.00013556,97.2844,3.4171,85.1911,106.1680,0,U,69144,999,545,.29598325E-2,.96544E-3,0
STARLINK-37657,2026-110X,2026-06-15T12:35:11.455296,15.49207823,.00013063,97.2826,2.9495,20.9374,339.1931,0,U,69145,999,535,.87370942E-3,.47748E-3,0
STARLINK-37639,2026-110Y,2026-06-15T22:00:01.999584,15.33387491,.00016164,97.2844,3.4291,87.5765,133.7985,0,U,69146,999,550,.29226816E-2,.95307E-3,0
STARLINK-37661,2026-110Z,2026-06-15T19:18:07.765920,15.49212694,.00021644,97.2835,3.1817,88.5167,271.6332,0,U,69147,999,539,.37818891E-3,.2055E-3,0
STARLINK-37395,2026-111A,2026-06-15T22:00:01.999584,15.63639445,.00008605,53.1597,158.3288,87.7274,334.9250,0,U,69148,999,534,-.11502177E-1,-.984862E-2,0
STARLINK-37346,2026-111B,2026-06-15T22:00:01.999584,15.49273287,.00014616,53.1596,158.8917,86.8080,58.1792,0,U,69149,999,534,.1208905E-2,.67283E-3,0
STARLINK-37332,2026-111C,2026-06-15T22:00:01.999584,15.49269452,.00011355,53.1592,159.2168,90.2647,253.9183,0,U,69150,999,534,.1346763E-2,.75071E-3,0
STARLINK-37297,2026-111D,2026-06-15T22:00:01.999584,15.61465844,.00015113,53.1601,158.2696,84.2630,7.2771,0,U,69151,999,534,-.3100677E-1,-.237036E-1,0
STARLINK-37317,2026-111E,2026-06-15T22:00:01.999584,15.66176367,.00013514,53.1595,158.1338,89.7013,68.2067,0,U,69152,999,534,-.26975359E-1,-.2473152E-1,0
STARLINK-37374,2026-111F,2026-06-15T22:00:01.999584,15.49270868,.0000908,53.1590,159.3935,108.8868,147.6938,0,U,69153,999,534,.12971189E-2,.72265E-3,0
STARLINK-37235,2026-111G,2026-06-15T16:45:59.666400,15.49330776,.00010997,53.1593,160.6803,85.6138,274.4997,0,U,69154,999,400,.49719459E-3,.27321E-3,0
STARLINK-37329,2026-111H,2026-06-15T22:00:01.999584,15.66015841,.00013388,53.1596,158.1379,87.6618,68.2103,0,U,69155,999,534,-.27816698E-1,-.2525671E-1,0
STARLINK-37345,2026-111J,2026-06-15T22:00:01.999584,15.67701196,.00013378,53.1593,158.0909,99.7980,79.2797,0,U,69156,999,534,-.26421427E-1,-.256448E-1,0
STARLINK-37353,2026-111K,2026-06-15T22:00:01.999584,15.67971205,.00013249,53.1596,158.0846,99.7821,82.3660,0,U,69157,999,534,-.25876118E-1,-.2543009E-1,0
STARLINK-37363,2026-111L,2026-06-15T22:00:01.999584,15.67723564,.00012457,53.1596,158.0874,103.3448,77.1544,0,U,69158,999,534,-.25907164E-1,-.2523063E-1,0
STARLINK-37343,2026-111M,2026-06-15T22:00:01.999584,15.49271964,.00008962,53.1589,159.3942,105.7605,150.0501,0,U,69159,999,534,.13125267E-2,.73139E-3,0
STARLINK-37328,2026-111N,2026-06-15T21:09:38.016000,15.69244200,.00009921,53.1599,158.2257,342.2988,17.7995,0,U,69160,999,405,-.95114297E-2,-.1019289E-1,0
STARLINK-37311,2026-111P,2026-06-15T22:00:01.999584,15.71405642,.00012876,53.1591,158.1585,97.0413,48.8102,0,U,69161,999,534,-.21994241E-1,-.250284E-1,0
STARLINK-36286,2026-111Q,2026-06-15T21:47:59.764704,15.59475571,.0000259,53.1600,158.4028,281.6298,78.4687,0,U,69162,999,405,-.60460542E-2,-.461269E-2,0
STARLINK-37196,2026-111R,2026-06-14T13:26:54.237408,15.78098124,.0001435,53.1566,164.9214,48.8780,311.2365,0,U,69163,999,384,.77789E-3,.136844E-2,0
